STARLINK-37970          
1 69706U 26147C   26190.85034612  .00364423  00000+0  18146-2 0  9998
2 69706  97.2868 226.9285 0000605  24.7562 335.3736 15.80939416  3011
STARLINK-37975          
1 69707U 26147D   26190.53308875  .00075775  00000+0  39288-3 0  9999
2 69707  97.2829 226.5973 0000848 136.0148 224.1188 15.80818054  2968
STARLINK-37972          
1 69708U 26147E   26190.84884214  .00300376  00000+0  15017-2 0  9991
2 69708  97.2860 226.9336 0001735 214.2422 145.8735 15.81017356  3012
STARLINK-37963          
1 69709U 26147F   26191.03799684  .00309433  00000+0  15538-2 0  9991
2 69709  97.2838 227.1314 0002143 107.5808 252.5695 15.80897501  3044
STARLINK-37969          
1 69710U 26147G   26191.29045032  .00304613  00000+0  15127-2 0  9991
2 69710  97.2841 227.4035 0000922 280.4931  79.6233 15.81152440  3081
STARLINK-37956          
1 69711U 26147H   26191.28969821  .00223191  00000+0  11339-2 0  9994
2 69711  97.2851 227.4032 0000830  68.7839 291.3518 15.80864293  3086
STARLINK-38043          
1 69712U 26147J   26191.25002315 -.00117708  00000+0 -62051-3 0  9994
2 69712  97.2847 227.3649 0001199 102.7268  36.0407 15.80871457  2955
STARLINK-38020          
1 69713U 26147K   26191.25002315 -.00121900  00000+0 -64287-3 0  9997
2 69713  97.2848 227.3668 0001208  95.4240  47.6168 15.80873882  2953
STARLINK-38059          
1 69714U 26147L   26191.25002315 -.00121591  00000+0 -64114-3 0  9993
2 69714  97.2851 227.3690 0000956  82.9426  64.3680 15.80877186  2955
STARLINK-38061          
1 69715U 26147M   26191.25002315 -.00145170  00000+0 -76773-3 0  9997
2 69715  97.2849 227.3698 0000894  88.5361  63.0506 15.80875971  3035
STARLINK-38060          
1 69716U 26147N   26191.25002315 -.00152489  00000+0 -80725-3 0  9991
2 69716  97.2848 227.3710 0000952  89.7864  66.0780 15.80872827  3030
STARLINK-38040          
1 69717U 26147P   26191.25002315 -.00147399  00000+0 -77978-3 0  9992
2 69717  97.2848 227.3732 0000995  83.8973  76.2380 15.80874048  3034
STARLINK-37989          
1 69718U 26147Q   26191.25002315 -.00080296  00000+0 -42146-3 0  9994
2 69718  97.2849 227.3757 0000849  93.7057  70.7043 15.80861683  3041
STARLINK-38039          
1 69719U 26147R   26191.25002315 -.00080606  00000+0 -42307-3 0  9999
2 69719  97.2851 227.3772 0000343 110.2840  58.3998 15.80864077  3047
STARLINK-38003          
1 69720U 26147S   26191.25002315 -.00140258  00000+0 -74148-3 0  9999
2 69720  97.2845 227.3780 0000964 114.4733  58.4878 15.80870779  3041
STARLINK-38014          
1 69721U 26147T   26191.25002315 -.00159554  00000+0 -84480-3 0  9999
2 69721  97.2848 227.3799 0001178  86.7352  90.4950 15.80886676  3041
STARLINK-37915          
1 69722U 26147U   26191.25002315 -.00136715  00000+0 -72239-3 0  9993
2 69722  97.2847 227.3816 0000863  79.9455 101.5593 15.80872389  3042
STARLINK-38007          
1 69723U 26147V   26191.25002315 -.00141390  00000+0 -74753-3 0  9992
2 69723  97.2846 227.3754 0001069  89.8982  77.9986 15.80871596  3048
STARLINK-38008          
1 69724U 26147W   26191.25002315 -.00137918  00000+0 -72881-3 0  9994
2 69724  97.2848 227.3865 0001172  97.5887  92.4640 15.80872887  3042
STARLINK-38021          
1 69725U 26147X   26191.25002315 -.00158666  00000+0 -84010-3 0  9995
2 69725  97.2845 227.3875 0000962 102.8401  91.4844 15.80885067  3048
STARLINK-38015          
1 69726U 26147Y   26191.25002315 -.00116389  00000+0 -61359-3 0  9993
2 69726  97.2851 227.3900 0001240 107.2050  91.3983 15.80866588  3044
STARLINK-38010          
1 69727U 26147Z   26191.25002315 -.00067962  00000+0 -45797-3 0  9994
2 69727  97.2852 227.3777 0000802  84.8277  84.7884 15.75213096  3042
SXM-11                  
1 69728U 26148A   26189.55643201 -.00000125  00000+0  00000+0 0  9992
2 69728   0.3141 160.6783 0287943 161.5453  35.7797  1.04825240   264
CZ-4B R/B               
1 69738U 26149B   26191.01411833  .00000073  00000+0  40838-4 0  9991
2 69738  99.3216 198.6626 0198373 345.0119  14.5234 14.30066287  1396
STARLINK-38033          
1 69739U 26150A   26191.25002315 -.00083152  00000+0 -43655-3 0  9991
2 69739  97.2848  29.3275 0001483  88.7978 136.8481 15.80863349  2500
STARLINK-38076          
1 69740U 26150B   26191.25002315 -.00725093  00000+0 -51822-2 0  9994
2 69740  97.2847  29.3253 0001597  68.3066 151.5178 15.75644952  2503
STARLINK-38074          
1 69741U 26150C   26191.25002315 -.00094955  00000+0 -49922-3 0  9990
2 69741  97.2845  29.3339 0001678  84.5442 155.7784 15.80865889  2504
STARLINK-38041          
1 69742U 26150D   26191.25002315 -.00084916  00000+0 -44604-3 0  9999
2 69742  97.2846  29.3360 0001046 100.3359 143.9346 15.80858601  2500
STARLINK-38087          
1 69743U 26150E   26191.25002315 -.00089472  00000+0 -47021-3 0  9998
2 69743  97.2844  29.3372 0001540  94.2736 154.6443 15.80859241  2509
