OBJECT_NAME,OBJECT_ID,EPOCH,MEAN_MOTION,ECCENTRICITY,INCLINATION,RA_OF_ASC_NODE,ARG_OF_PERICENTER,MEAN_ANOMALY,EPHEMERIS_TYPE,CLASSIFICATION_TYPE,NORAD_CAT_ID,ELEMENT_SET_NO,REV_AT_EPOCH,BSTAR,MEAN_MOTION_DOT,MEAN_MOTION_DDOT
STARLINK-37970,2026-147C,2026-07-09T20:24:29.904768,15.80939416,.00006057,97.2868,226.9285,24.7562,335.3736,0,U,69706,999,301,.18145715E-2,.364423E-2,0
STARLINK-37975,2026-147D,2026-07-09T12:47:38.868000,15.80818054,.0000848,97.2829,226.5973,136.0148,224.1188,0,U,69707,999,296,.39287975E-3,.75775E-3,0
STARLINK-37972,2026-147E,2026-07-09T20:22:19.960896,15.81017356,.00017352,97.2860,226.9336,214.2422,145.8735,0,U,69708,999,301,.15016779E-2,.300376E-2,0
STARLINK-37963,2026-147F,2026-07-10T00:54:42.926976,15.80897501,.00021437,97.2838,227.1314,107.5808,252.5695,0,U,69709,999,304,.15537689E-2,.309433E-2,0
STARLINK-37969,2026-147G,2026-07-10T06:58:14.907648,15.81152440,.00009227,97.2841,227.4035,280.4931,79.6233,0,U,69710,999,308,.15127184E-2,.304613E-2,0
STARLINK-37956,2026-147H,2026-07-10T06:57:09.925344,15.80864293,.000083,97.2851,227.4032,68.7839,291.3518,0,U,69711,999,308,.11338845E-2,.223191E-2,0
STARLINK-38043,2026-147J,2026-07-10T06:00:02.000160,15.80871457,.0001199,97.2847,227.3649,102.7268,36.0407,0,U,69712,999,295,-.62051317E-3,-.117708E-2,0
STARLINK-38020,2026-147K,2026-07-10T06:00:02.000160,15.80873882,.00012086,97.2848,227.3668,95.4240,47.6168,0,U,69713,999,295,-.64287062E-3,-.1219E-2,0
STARLINK-38059,2026-147L,2026-07-10T06:00:02.000160,15.80877186,.00009567,97.2851,227.3690,82.9426,64.3680,0,U,69714,999,295,-.64113956E-3,-.121591E-2,0
STARLINK-38061,2026-147M,2026-07-10T06:00:02.000160,15.80875971,.00008944,97.2849,227.3698,88.5361,63.0506,0,U,69715,999,303,-.76772616E-3,-.14517E-2,0
STARLINK-38060,2026-147N,2026-07-10T06:00:02.000160,15.80872827,.00009526,97.2848,227.3710,89.7864,66.0780,0,U,69716,999,303,-.80724766E-3,-.152489E-2,0
STARLINK-38040,2026-147P,2026-07-10T06:00:02.000160,15.80874048,.00009951,97.2848,227.3732,83.8973,76.2380,0,U,69717,999,303,-.77977876E-3,-.147399E-2,0
STARLINK-37989,2026-147Q,2026-07-10T06:00:02.000160,15.80861683,.00008495,97.2849,227.3757,93.7057,70.7043,0,U,69718,999,304,-.42145595E-3,-.80296E-3,0
STARLINK-38039,2026-147R,2026-07-10T06:00:02.000160,15.80864077,.00003432,97.2851,227.3772,110.2840,58.3998,0,U,69719,999,304,-.4230722E-3,-.80606E-3,0
STARLINK-38003,2026-147S,2026-07-10T06:00:02.000160,15.80870779,.00009643,97.2845,227.3780,114.4733,58.4878,0,U,69720,999,304,-.74147895E-3,-.140258E-2,0
STARLINK-38014,2026-147T,2026-07-10T06:00:02.000160,15.80886676,.00011781,97.2848,227.3799,86.7352,90.4950,0,U,69721,999,304,-.84480485E-3,-.159554E-2,0
STARLINK-37915,2026-147U,2026-07-10T06:00:02.000160,15.80872389,.00008636,97.2847,227.3816,79.9455,101.5593,0,U,69722,999,304,-.72239052E-3,-.136715E-2,0
STARLINK-38007,2026-147V,2026-07-10T06:00:02.000160,15.80871596,.00010694,97.2846,227.3754,89.8982,77.9986,0,U,69723,999,304,-.74752713E-3,-.14139E-2,0
STARLINK-38008,2026-147W,2026-07-10T06:00:02.000160,15.80872887,.00011725,97.2848,227.3865,97.5887,92.4640,0,U,69724,999,304,-.72881079E-3,-.137918E-2,0
STARLINK-38021,2026-147X,2026-07-10T06:00:02.000160,15.80885067,.00009621,97.2845,227.3875,102.8401,91.4844,0,U,69725,999,304,-.8400992E-3,-.158666E-2,0
STARLINK-38015,2026-147Y,2026-07-10T06:00:02.000160,15.80866588,.00012406,97.2851,227.3900,107.2050,91.3983,0,U,69726,999,304,-.61359229E-3,-.116389E-2,0
STARLINK-38010,2026-147Z,2026-07-10T06:00:02.000160,15.75213096,.00008027,97.2852,227.3777,84.8277,84.7884,0,U,69727,999,304,-.45796877E-3,-.67962E-3,0
SXM-11,2026-148A,2026-07-08T13:21:15.725664,1.04825240,.02879431,0.3141,160.6783,161.5453,35.7797,0,U,69728,999,26,0,-.125E-5,0
CZ-4B R/B,2026-149B,2026-07-10T00:20:19.823712,14.30066287,.01983734,99.3216,198.6626,345.0119,14.5234,0,U,69738,999,139,.40837833E-4,.73E-6,0
STARLINK-38033,2026-150A,2026-07-10T06:00:02.000160,15.80863349,.00014833,97.2848,29.3275,88.7978,136.8481,0,U,69739,999,250,-.43654663E-3,-.83152E-3,0
STARLINK-38076,2026-150B,2026-07-10T06:00:02.000160,15.75644952,.00015979,97.2847,29.3253,68.3066,151.5178,0,U,69740,999,250,-.51821576E-2,-.725093E-2,0
STARLINK-38074,2026-150C,2026-07-10T06:00:02.000160,15.80865889,.00016782,97.2845,29.3339,84.5442,155.7784,0,U,69741,999,250,-.49921998E-3,-.94955E-3,0
STARLINK-38041,2026-150D,2026-07-10T06:00:02.000160,15.80858601,.00010464,97.2846,29.3360,100.3359,143.9346,0,U,69742,999,250,-.4460365E-3,-.84916E-3,0
STARLINK-38087,2026-150E,2026-07-10T06:00:02.000160,15.80859241,.00015401,97.2844,29.3372,94.2736,154.6443,0,U,69743,999,250,-.47020659E-3,-.89472E-3,0
